[{"OBJECT_NAME":"BUFENG 1B","OBJECT_ID":"2019-032B","EPOCH":"2026-03-09T19:57:27.457920","MEAN_MOTION":15.25619535,"ECCENTRICITY":0.00242037,"INCLINATION":44.9701,"RA_OF_ASC_NODE":192.0248,"ARG_OF_PERICENTER":123.8847,"MEAN_ANOMALY":236.4342,"EPHEMERIS_TYPE":0,"CLASSIFICATION_TYPE":"U","NORAD_CAT_ID":44311,"ELEMENT_SET_NO":999,"REV_AT_EPOCH":37256,"BSTAR":0.00059375374,"MEAN_MOTION_DOT":0.00015236,"MEAN_MOTION_DDOT":0},{"OBJECT_NAME":"STARLINK-35270","OBJECT_ID":"2025-224A","EPOCH":"2026-03-09T03:56:38.059296","MEAN_MOTION":15.30180919,"ECCENTRICITY":0.00014123,"INCLINATION":53.1621,"RA_OF_ASC_NODE":13.8109,"ARG_OF_PERICENTER":108.1544,"MEAN_ANOMALY":251.9611,"EPHEMERIS_TYPE":0,"CLASSIFICATION_TYPE":"U","NORAD_CAT_ID":65882,"ELEMENT_SET_NO":999,"REV_AT_EPOCH":2474,"BSTAR":-0.00019196423,"MEAN_MOTION_DOT":-6.037e-5,"MEAN_MOTION_DDOT":0}]
